{"fetched_at":"2026-07-15T17:47:30.557Z","source":"https://celestrak.org/NORAD/elements/gp.php?NAME=SENTINEL&FORMAT=JSON","constellation":"sentinel-2","records":[{"OBJECT_NAME":"SENTINEL-2A","OBJECT_ID":"2015-028A","EPOCH":"2026-07-15T04:28:53.052096","CLASSIFICATION_TYPE":"U","MEAN_MOTION":14.30814152,"ECCENTRICITY":0.0001265,"INCLINATION":98.5684,"RA_OF_ASC_NODE":270.6396,"ARG_OF_PERICENTER":95.108,"MEAN_ANOMALY":265.0247,"EPHEMERIS_TYPE":0,"NORAD_CAT_ID":40697,"ELEMENT_SET_NO":999,"REV_AT_EPOCH":57773,"BSTAR":0.0000073158,"MEAN_MOTION_DOT":-2.4e-7,"MEAN_MOTION_DDOT":0},{"OBJECT_NAME":"SENTINEL-2B","OBJECT_ID":"2017-013A","EPOCH":"2026-07-15T04:18:31.907808","CLASSIFICATION_TYPE":"U","MEAN_MOTION":14.30815121,"ECCENTRICITY":0.0001197,"INCLINATION":98.5692,"RA_OF_ASC_NODE":270.5576,"ARG_OF_PERICENTER":91.0425,"MEAN_ANOMALY":269.0895,"EPHEMERIS_TYPE":0,"NORAD_CAT_ID":42063,"ELEMENT_SET_NO":999,"REV_AT_EPOCH":48864,"BSTAR":0.000032532,"MEAN_MOTION_DOT":4.2e-7,"MEAN_MOTION_DDOT":0},{"OBJECT_NAME":"SENTINEL-2C","OBJECT_ID":"2024-157A","EPOCH":"2026-07-15T05:08:54.225600","CLASSIFICATION_TYPE":"U","MEAN_MOTION":14.30815672,"ECCENTRICITY":0.0000954,"INCLINATION":98.5685,"RA_OF_ASC_NODE":270.5987,"ARG_OF_PERICENTER":104.0012,"MEAN_ANOMALY":256.1277,"EPHEMERIS_TYPE":0,"NORAD_CAT_ID":60989,"ELEMENT_SET_NO":999,"REV_AT_EPOCH":9699,"BSTAR":0.000033668,"MEAN_MOTION_DOT":4.5e-7,"MEAN_MOTION_DDOT":0}]}
